LEMUR-1                 
1 40044U 14033AL  26200.36082858  .00000703  00000+0  86603-4 0  9999
2 40044  97.7915 349.4597 0047398 334.0921  25.7922 14.85343520650245
LEMUR-2-GREENBERG       
1 42837U 17042N   26200.48787179  .00008759  00000+0  28370-3 0  9990
2 42837  97.3839  20.9886 0007431 241.5042 118.5452 15.32233564493333
LEMUR-2-ANDIS           
1 42838U 17042P   26200.44011883  .00011782  00000+0  33770-3 0  9999
2 42838  97.3691  21.2418 0007413 240.5981 119.4524 15.36030642493400
LEMUR-2-MONSON          
1 42839U 17042Q   26200.43663631  .00007735  00000+0  27875-3 0  9995
2 42839  97.4100  20.8588 0005574 227.4417 132.6353 15.28819890493097
LEMUR-2-FURIAUS         
1 42840U 17042R   26200.43830536  .00009277  00000+0  31005-3 0  9990
2 42840  97.3788  18.8215 0005723 311.1861  48.8887 15.31212862493140
LEMUR-2-PETERG          
1 42841U 17042S   26200.44348177  .00010813  00000+0  31943-3 0  9996
2 42841  97.4004  25.5577 0003631 202.2189 157.8897 15.35124199493385
LEMUR-2-DEMBITZ         
1 42842U 17042T   26200.45811642  .00009000  00000+0  30114-3 0  9995
2 42842  97.3838  21.8882 0005174 254.4357 105.6313 15.31187477493285
LEMUR-2-ZACHARY         
1 42845U 17042W   26200.56304487  .00030898  00000+0  49610-3 0  9994
2 42845  97.3579  32.9526 0002841 225.2665 134.8357 15.52986364494226
LEMUR-2-AMANDA-SVANTE   
1 48269U 21034B   26200.16401883  .00018266  00000+0  52088-3 0  9998
2 48269  97.5741 279.3353 0004800 134.5168 225.6469 15.36109547285961
LEMUR-2-SPECIAL-K       
1 48273U 21034F   26200.52540647  .00191764  00000+0  11990-2 0  9996
2 48273  97.5625 290.0063 0006289 210.9411 149.1484 15.76271656286769
LEMUR-2-EMBRIONOVIS     
1 56970U 23084AQ  26200.34320846  .00007667  00000+0  20526-3 0  9997
2 56970  97.6331 345.8022 0008671 191.0814 169.0241 15.38295857172622
LEMUR-2-DEVERILL-M-T    
1 57391U 23100F   26200.58089180  .00014094  00000+0  34188-3 0  9994
2 57391  99.4445 248.7356 0004771 278.7246  81.3454 15.41222703166232
LEMUR-2-BASS            
1 58259U 23174D   26200.23383047  .00009599  00000+0  21181-3 0  9993
2 58259  97.3838 285.4163 0007390  66.0870 294.1152 15.44075934150309
LEMUR-2-JK0903EM1407    
1 58336U 23174CJ  26200.50004439  .00016129  00000+0  25811-3 0  9995
2 58336  97.3916 291.9183 0003158  16.1539 343.9814 15.53210628150749
LEMUR-2-MJR092620       
1 58340U 23174CN  26200.40331355  .00010529  00000+0  21794-3 0  9993
2 58340  97.3968 291.0515 0004894  15.0345 345.1049 15.45955431150622
LEMUR-2-NIMBUS2000      
1 58899U 24022A   26200.48882309  .00012050  00000+0  29171-3 0  9991
2 58899  97.4081  50.9197 0008300  13.8440 346.3033 15.41225793137240
LEMUR-2-VALHALLA        
1 58900U 24022B   26200.49547390  .00008531  00000+0  21173-3 0  9996
2 58900  97.4078  50.8921 0008767   9.2115 350.9291 15.40566426137245
LEMUR-2-CAEL            
1 58903U 24022E   26200.34746674  .00009367  00000+0  22211-3 0  9991
2 58903  97.4060  51.7363 0006665 354.0113   6.1053 15.41938041137291
LEMUR-2-JOHNNYTRUONG    
1 59146U 24043BA  26200.38017769  .00024963  00000+0  27854-3 0  9991
2 59146  97.5404 354.1407 0003826  81.8636 278.3056 15.62784650133069
LEMUR-2-TOMATOKECHUP    
1 60471U 24149D   26200.21710426  .00005714  00000+0  16205-3 0  9994
2 60471  97.3787 282.3582 0003415 114.6997 245.4603 15.36630911107086
LEMUR-2-STELLA          
1 60533U 24149BT  26200.50659398  .00006013  00000+0  34992-3 0  9991
2 60533  97.6729 283.1165 0001255 123.3945 236.7406 15.12421715105389
LEMUR-2-MARHISYAM       
1 60536U 24149BW  26200.49919911  .00005004  00000+0  29677-3 0  9995
2 60536  97.6873 283.5902 0002281  62.7388 297.4074 15.11824015105364
LEMUR-2-AHMED-ASRAR     
1 60576U 24149DN  26200.17075253  .00005823  00000+0  33036-3 0  9999
2 60576  97.7001 285.4784 0001562 187.1525 172.9683 15.13356542105402
LEMUR-2-LLOYD           
1 60577U 24149DP  26200.45662271  .00004801  00000+0  30116-3 0  9994
2 60577  97.6731 281.6144 0004307  60.7436 299.4223 15.09791096105268
LEMUR-2-SQUIRRELCOMM    
1 60578U 24149DQ  26200.18625791  .00002892  00000+0  19490-3 0  9991
2 60578  97.6699 281.0022 0004014 307.5122  52.5740 15.07467173105222
LEMUR-2-SIERRINI        
1 60579U 24149DR  26200.19784575  .00005171  00000+0  30866-3 0  9992
2 60579  97.6829 282.9443 0006197  80.6962 279.4968 15.11556798105296
LEMUR-2-WILSON          
1 62694U 25009CP  26200.21696335  .00001071  00000+0  10238-3 0  9993
2 62694  97.7016 278.1201 0001703 300.8351  59.2702 14.95284101 82146
LEMUR-2-STAR-FOX        
1 62696U 25009CR  26200.18833329  .00003706  00000+0  28089-3 0  9997
2 62696  97.6897 281.5669 0001765  26.7663 333.3653 15.02869858 82360
LEMUR-2-ARIANNA         
1 62699U 25009CU  26200.18679380  .00003837  00000+0  29064-3 0  9994
2 62699  97.6840 281.3147 0002074  35.4388 324.6975 15.02872906 82363
LEMUR-2-ALISIA          
1 62706U 25009DB  26200.49110711  .00003743  00000+0  28108-3 0  9999
2 62706  97.6962 282.4502 0004797 117.4213 242.7501 15.03209799105014
