OBJECT_NAME,OBJECT_ID,EPOCH,MEAN_MOTION,ECCENTRICITY,INCLINATION,RA_OF_ASC_NODE,ARG_OF_PERICENTER,MEAN_ANOMALY,EPHEMERIS_TYPE,CLASSIFICATION_TYPE,NORAD_CAT_ID,ELEMENT_SET_NO,REV_AT_EPOCH,BSTAR,MEAN_MOTION_DOT,MEAN_MOTION_DDOT
LEMUR-1,2014-033AL,2026-07-19T08:39:35.589312,14.85343520,.00473981,97.7915,349.4597,334.0921,25.7922,0,U,40044,999,65024,.86603248E-4,.703E-5,0
LEMUR-2-GREENBERG,2017-042N,2026-07-19T11:42:32.122656,15.32233564,.00074313,97.3839,20.9886,241.5042,118.5452,0,U,42837,999,49333,.28369999E-3,.8759E-4,0
LEMUR-2-ANDIS,2017-042P,2026-07-19T10:33:46.266912,15.36030642,.00074134,97.3691,21.2418,240.5981,119.4524,0,U,42838,999,49340,.33770018E-3,.11782E-3,0
LEMUR-2-MONSON,2017-042Q,2026-07-19T10:28:45.377184,15.28819890,.00055741,97.4100,20.8588,227.4417,132.6353,0,U,42839,999,49309,.27874951E-3,.7735E-4,0
LEMUR-2-FURIAUS,2017-042R,2026-07-19T10:31:09.583104,15.31212862,.00057234,97.3788,18.8215,311.1861,48.8887,0,U,42840,999,49314,.31005454E-3,.9277E-4,0
LEMUR-2-PETERG,2017-042S,2026-07-19T10:38:36.824928,15.35124199,.00036319,97.4004,25.5577,202.2189,157.8897,0,U,42841,999,49338,.31942597E-3,.10813E-3,0
LEMUR-2-DEMBITZ,2017-042T,2026-07-19T10:59:41.258688,15.31187477,.00051747,97.3838,21.8882,254.4357,105.6313,0,U,42842,999,49328,.30114417E-3,.9E-4,0
LEMUR-2-ZACHARY,2017-042W,2026-07-19T13:30:47.076768,15.52986364,.0002841,97.3579,32.9526,225.2665,134.8357,0,U,42845,999,49422,.49610105E-3,.30898E-3,0
LEMUR-2-AMANDA-SVANTE,2021-034B,2026-07-19T03:56:11.226912,15.36109547,.00048007,97.5741,279.3353,134.5168,225.6469,0,U,48269,999,28596,.52088061E-3,.18266E-3,0
LEMUR-2-SPECIAL-K,2021-034F,2026-07-19T12:36:35.119008,15.76271656,.0006289,97.5625,290.0063,210.9411,149.1484,0,U,48273,999,28676,.1199005E-2,.191764E-2,0
LEMUR-2-EMBRIONOVIS,2023-084AQ,2026-07-19T08:14:13.210944,15.38295857,.00086712,97.6331,345.8022,191.0814,169.0241,0,U,56970,999,17262,.20526416E-3,.7667E-4,0
LEMUR-2-DEVERILL-M-T,2023-100F,2026-07-19T13:56:29.051520,15.41222703,.00047711,99.4445,248.7356,278.7246,81.3454,0,U,57391,999,16623,.34187616E-3,.14094E-3,0
LEMUR-2-BASS,2023-174D,2026-07-19T05:36:42.952608,15.44075934,.00073904,97.3838,285.4163,66.0870,294.1152,0,U,58259,999,15030,.21180997E-3,.9599E-4,0
LEMUR-2-JK0903EM1407,2023-174CJ,2026-07-19T12:00:03.835296,15.53210628,.00031582,97.3916,291.9183,16.1539,343.9814,0,U,58336,999,15074,.25811121E-3,.16129E-3,0
LEMUR-2-MJR092620,2023-174CN,2026-07-19T09:40:46.290720,15.45955431,.00048941,97.3968,291.0515,15.0345,345.1049,0,U,58340,999,15062,.21793587E-3,.10529E-3,0
LEMUR-2-NIMBUS2000,2024-022A,2026-07-19T11:43:54.314976,15.41225793,.00083005,97.4081,50.9197,13.8440,346.3033,0,U,58899,999,13724,.29171467E-3,.1205E-3,0
LEMUR-2-VALHALLA,2024-022B,2026-07-19T11:53:28.944960,15.40566426,.00087672,97.4078,50.8921,9.2115,350.9291,0,U,58900,999,13724,.21172509E-3,.8531E-4,0
LEMUR-2-CAEL,2024-022E,2026-07-19T08:20:21.126336,15.41938041,.00066659,97.4060,51.7363,354.0113,6.1053,0,U,58903,999,13729,.22210846E-3,.9367E-4,0
LEMUR-2-JOHNNYTRUONG,2024-043BA,2026-07-19T09:07:27.352416,15.62784650,.00038268,97.5404,354.1407,81.8636,278.3056,0,U,59146,999,13306,.27854272E-3,.24963E-3,0
LEMUR-2-TOMATOKECHUP,2024-149D,2026-07-19T05:12:37.808064,15.36630911,.00034158,97.3787,282.3582,114.6997,245.4603,0,U,60471,999,10708,.16204635E-3,.5714E-4,0
LEMUR-2-STELLA,2024-149BT,2026-07-19T12:09:29.719872,15.12421715,.00012556,97.6729,283.1165,123.3945,236.7406,0,U,60533,999,10538,.34991547E-3,.6013E-4,0
LEMUR-2-MARHISYAM,2024-149BW,2026-07-19T11:58:50.803104,15.11824015,.00022819,97.6873,283.5902,62.7388,297.4074,0,U,60536,999,10536,.29677176E-3,.5004E-4,0
LEMUR-2-AHMED-ASRAR,2024-149DN,2026-07-19T04:05:53.018592,15.13356542,.00015622,97.7001,285.4784,187.1525,172.9683,0,U,60576,999,10540,.33035788E-3,.5823E-4,0
LEMUR-2-LLOYD,2024-149DP,2026-07-19T10:57:32.202144,15.09791096,.00043072,97.6731,281.6144,60.7436,299.4223,0,U,60577,999,10526,.30115573E-3,.4801E-4,0
LEMUR-2-SQUIRRELCOMM,2024-149DQ,2026-07-19T04:28:12.683424,15.07467173,.00040148,97.6699,281.0022,307.5122,52.5740,0,U,60578,999,10522,.19489632E-3,.2892E-4,0
LEMUR-2-SIERRINI,2024-149DR,2026-07-19T04:44:53.872800,15.11556798,.0006197,97.6829,282.9443,80.6962,279.4968,0,U,60579,999,10529,.30865722E-3,.5171E-4,0
LEMUR-2-WILSON,2025-009CP,2026-07-19T05:12:25.633440,14.95284101,.00017036,97.7016,278.1201,300.8351,59.2702,0,U,62694,999,8214,.1023846E-3,.1071E-4,0
LEMUR-2-STAR-FOX,2025-009CR,2026-07-19T04:31:11.996256,15.02869858,.00017652,97.6897,281.5669,26.7663,333.3653,0,U,62696,999,8236,.28088674E-3,.3706E-4,0
LEMUR-2-ARIANNA,2025-009CU,2026-07-19T04:28:58.984320,15.02872906,.00020741,97.6840,281.3147,35.4388,324.6975,0,U,62699,999,8236,.29063805E-3,.3837E-4,0
LEMUR-2-ALISIA,2025-009DB,2026-07-19T11:47:11.654304,15.03209799,.00047971,97.6962,282.4502,117.4213,242.7501,0,U,62706,999,10501,.28107878E-3,.3743E-4,0
